[{"OBJECT_NAME":"CHECKMATE 1","OBJECT_ID":"2023-050G","EPOCH":"2026-03-09T16:59:32.113248","MEAN_MOTION":13.84937223,"ECCENTRICITY":0.00103941,"INCLINATION":81.0073,"RA_OF_ASC_NODE":167.3434,"ARG_OF_PERICENTER":249.5974,"MEAN_ANOMALY":110.4066,"EPHEMERIS_TYPE":0,"CLASSIFICATION_TYPE":"U","NORAD_CAT_ID":56168,"ELEMENT_SET_NO":999,"REV_AT_EPOCH":14832,"BSTAR":0.00010869362,"MEAN_MOTION_DOT":1.34e-6,"MEAN_MOTION_DDOT":0},{"OBJECT_NAME":"COSMOS 1275 DEB","OBJECT_ID":"1981-053HK","EPOCH":"2026-03-09T17:20:12.062976","MEAN_MOTION":13.82204603,"ECCENTRICITY":0.01083162,"INCLINATION":83.0233,"RA_OF_ASC_NODE":306.8673,"ARG_OF_PERICENTER":352.1787,"MEAN_ANOMALY":69.1474,"EPHEMERIS_TYPE":0,"CLASSIFICATION_TYPE":"U","NORAD_CAT_ID":13815,"ELEMENT_SET_NO":999,"REV_AT_EPOCH":15574,"BSTAR":0.0016347614,"MEAN_MOTION_DOT":1.857e-5,"MEAN_MOTION_DDOT":0}]
